SPOT 6                  
1 38755U 12047A   26195.15852737  .00000020  00000+0  14103-4 0  9997
2 38755  98.2116 262.1498 0001101  85.0800 275.0525 14.58538166736989
SPOT 7                  
1 40053U 14034A   26195.16604310  .00000279  00000+0  66189-4 0  9999
2 40053  98.0623 256.9608 0001592  96.2458 263.8924 14.60980670641072
